STARLINK-1771
1 46384U 20062BM  26061.15620517  .00058738  00000+0  12097-2 0  9998
2 46384  53.0446  21.8907 0002414 242.2016 117.8745 15.45383562303577
